     2.100          NAVIGATION                              RINEX VERSION / TYPE
fic2rin                                 06/13/2009 01:56:59 PGM / RUN BY / DATE
                                                            END OF HEADER
32 09  6 12 20  0  0.0  .248073600233D-03 -.557065504836D-11  .000000000000D+00
     .108000000000D+03  .305625000000D+02  .416838791580D-08 -.219654204163D+01
     .186823308468D-05  .133066017879D-01  .897049903870D-05  .515355217934D+04
     .504000000000D+06  .372529029846D-07  .483398609915D+00  .316649675369D-06
     .964123998903D+00  .204125000000D+03 -.115892914445D+01 -.768924885951D-08
    -.171435712414D-09  .100000000000D+01  .153500000000D+04  .000000000000D+00
     .240000000000D+01  .000000000000D+00 -.325962901115D-08  .108000000000D+03
     .496806000000D+06  .400000000000D+01
 9 09  6 12 19 59 44.0  .608414411545D-04  .204636307899D-11  .000000000000D+00
     .570000000000D+02 -.831250000000D+01  .436839624695D-08  .234954661886D+01
    -.758096575737D-06  .206469923723D-01  .244192779064D-05  .515363573647D+04
     .503984000000D+06  .147148966789D-06  .245953638821D+01 -.208616256714D-06
     .976544160230D+00  .335281250000D+03  .148191300845D+01 -.788711424425D-08
    -.753602819154D-10  .100000000000D+01  .153500000000D+04  .000000000000D+00
     .240000000000D+01  .000000000000D+00 -.558793544769D-08  .570000000000D+02
     .497436000000D+06  .400000000000D+01
 2 09  6 12 19 59 44.0  .156213529408D-03  .102318153949D-11  .000000000000D+00
     .600000000000D+01  .353125000000D+01  .507842582253D-08 -.127666706192D+01
     .189989805222D-06  .906208390370D-02  .597350299358D-05  .515365905190D+04
     .503984000000D+06 -.149011611938D-06 -.661953882339D+00 -.139698386192D-06
     .941130228503D+00  .255843750000D+03  .283827393567D+01 -.828463080241D-08
     .117504894551D-09  .100000000000D+01  .153500000000D+04  .000000000000D+00
     .240000000000D+01  .000000000000D+00 -.172294676304D-07  .600000000000D+01
     .497856000000D+06  .400000000000D+01
 7 09  6 12 19 59 44.0  .171819701791D-04 -.682121026330D-12  .000000000000D+00
     .260000000000D+02 -.175937500000D+02  .471412493365D-08 -.296247340430D+01
    -.806525349617D-06  .267018051818D-02  .263750553131D-05  .515366620827D+04
     .503984000000D+06 -.577419996262D-07  .249343674686D+01 -.391155481339D-07
     .967652375908D+00  .334968750000D+03  .287344601047D+01 -.827427322812D-08
     .317870383435D-10  .100000000000D+01  .153500000000D+04  .000000000000D+00
     .240000000000D+01  .000000000000D+00 -.107102096081D-07  .260000000000D+02
     .498936000000D+06  .400000000000D+01
 2 09  6 12 21 59 44.0  .156221445650D-03  .102318153949D-11  .000000000000D+00
     .700000000000D+01  .750000000000D+01  .525164732362D-08 -.226555759242D+00
     .270083546638D-06  .906153663527D-02  .574626028538D-05  .515365728569D+04
     .511184000000D+06  .217929482460D-06 -.662012576075D+00 -.130385160446D-06
     .941129606763D+00  .261531250000D+03  .283835692702D+01 -.847535303247D-08
    -.143577409147D-09  .100000000000D+01  .153500000000D+04  .000000000000D+00
     .240000000000D+01  .000000000000D+00 -.172294676304D-07  .700000000000D+01
     .504006000000D+06  .400000000000D+01
 7 09  6 12 21 59 44.0  .171768479049D-04 -.682121026330D-12  .000000000000D+00
     .270000000000D+02 -.196562500000D+02  .471341061819D-08 -.191241327596D+01
    -.105425715446D-05  .267097551841D-02  .304542481899D-05  .515366465378D+04
     .511184000000D+06 -.745058059692D-08  .249337703347D+01 -.856816768646D-07
     .967652585106D+00  .328250000000D+03  .287357363544D+01 -.829534553444D-08
     .557166065346D-10  .100000000000D+01  .153500000000D+04  .000000000000D+00
     .240000000000D+01  .000000000000D+00 -.107102096081D-07  .270000000000D+02
     .504006000000D+06  .400000000000D+01
 9 09  6 12 21 59 44.0  .608558766544D-04  .204636307899D-11  .000000000000D+00
     .890000000000D+02 -.121562500000D+02  .449875881993D-08 -.288342630239D+01
    -.732019543648D-06  .206479771296D-01  .221095979214D-05  .515363393974D+04
     .511184000000D+06  .370666384697D-06  .245947797682D+01  .316649675369D-07
     .976544117805D+00  .342000000000D+03  .148190539103D+01 -.796747473445D-08
     .168578450541D-09  .100000000000D+01  .153500000000D+04  .000000000000D+00
     .240000000000D+01  .000000000000D+00 -.558793544769D-08  .890000000000D+02
     .504006000000D+06  .400000000000D+01
 1 09  6 12 22  0  0.0 -.781025737524D-04  .579802872380D-11  .000000000000D+00
     .470000000000D+02 -.945625000000D+02  .574023910400D-08  .231417548919D+01
    -.500306487083D-05  .347471912391D-02  .795908272266D-05  .515376779175D+04
     .511200000000D+06 -.260770320892D-07 -.275019167616D+01 -.521540641785D-07
     .961311022486D+00  .225406250000D+03  .909403587647D+00 -.798033241288D-08
    -.155720772109D-09  .100000000000D+01  .153500000000D+04  .000000000000D+00
     .240000000000D+01  .630000000000D+02 -.130385160446D-07  .470000000000D+02
     .504006000000D+06  .400000000000D+01
 3 09  6 12 22  0  0.0  .405850354582D-03  .511590769747D-11  .000000000000D+00
     .112000000000D+03 -.456250000000D+01  .535736601294D-08 -.545401545866D+00
    -.242143869400D-06  .119096164126D-01  .870041549206D-05  .515363604355D+04
     .511200000000D+06 -.149011611938D-07 -.181027171978D+01  .191852450371D-06
     .926036508315D+00  .191406250000D+03  .904166722745D+00 -.853821279369D-08
     .107504477993D-09  .100000000000D+01  .153500000000D+04  .000000000000D+00
     .340000000000D+01  .000000000000D+00 -.419095158577D-08  .112000000000D+03
     .504006000000D+06  .400000000000D+01
 4 09  6 12 22  0  0.0 -.130338594317D-03 -.159161572810D-10  .000000000000D+00
     .720000000000D+02  .693750000000D+01  .515914347046D-08  .264803401617D+01
     .232830643654D-06  .859080802184D-02  .574439764023D-05  .515374677658D+04
     .511200000000D+06 -.502914190292D-07 -.643660435544D+00 -.912696123123D-07
     .940350790139D+00  .259812500000D+03  .489348351872D+00 -.826713007344D-08
    -.117862052285D-09  .100000000000D+01  .153500000000D+04  .000000000000D+00
     .240000000000D+01  .000000000000D+00 -.605359673500D-08  .720000000000D+02
     .504006000000D+06  .400000000000D+01
 6 09  6 12 22  0  0.0  .158709939569D-03  .133013600134D-10  .000000000000D+00
     .980000000000D+02 -.890625000000D+01  .510592696807D-08  .188908983112D+01
    -.586733222008D-06  .600100459997D-02  .853836536407D-05  .515370306778D+04
     .511200000000D+06  .102445483208D-06 -.174252755305D+01 -.726431608200D-07
     .933475082481D+00  .193343750000D+03 -.134620137517D+01 -.816212569958D-08
     .108933108930D-09  .100000000000D+01  .153500000000D+04  .000000000000D+00
     .240000000000D+01  .000000000000D+00 -.465661287308D-08  .980000000000D+02
     .504006000000D+06  .400000000000D+01
 8 09  6 12 22  0  0.0 -.207418575883D-03 -.159161572810D-11  .000000000000D+00
     .710000000000D+02 -.285937500000D+02  .421088968617D-08 -.264033939184D+01
    -.133551657200D-05  .106262997724D-01  .346451997757D-05  .515364232254D+04
     .511200000000D+06 -.186264514923D-06  .255407095032D+01 -.465661287308D-07
     .988891807633D+00  .332843750000D+03  .299257024177D+01 -.791854412486D-08
     .460733477113D-10  .100000000000D+01  .153500000000D+04  .000000000000D+00
     .340000000000D+01  .000000000000D+00 -.372529029846D-08  .710000000000D+02
     .504006000000D+06  .400000000000D+01
10 09  6 12 22  0  0.0 -.174413435161D-04 -.568434188608D-12  .000000000000D+00
     .870000000000D+02  .197500000000D+02  .435303846438D-08  .727191264332D+00
     .109151005745D-05  .857663981151D-02  .914931297302D-05  .515361859512D+04
     .511200000000D+06 -.875443220139D-07  .422115701762D+00  .128522515297D-06
     .958434981133D+00  .202781250000D+03  .625599680498D+00 -.797140346952D-08
    -.353586156854D-09  .100000000000D+01  .153500000000D+04  .000000000000D+00
     .340000000000D+01  .000000000000D+00 -.279396772385D-08  .870000000000D+02
     .504006000000D+06  .400000000000D+01
11 09  6 12 22  0  0.0 -.624544918537D-05 -.147792889038D-11  .000000000000D+00
     .610000000000D+02  .191875000000D+02  .622704509571D-08 -.209586802049D+01
     .996515154839D-06  .938860501628D-02  .532716512680D-05  .515368179321D+04
     .511200000000D+06  .558793544769D-08 -.862941286043D+00 -.102445483208D-06
     .889151809953D+00  .238562500000D+03  .699671103973D+00 -.873393523203D-08
     .910752222200D-10  .100000000000D+01  .153500000000D+04  .000000000000D+00
     .240000000000D+01  .000000000000D+00 -.116415321827D-07  .610000000000D+02
     .504006000000D+06  .400000000000D+01
12 09  6 12 22  0  0.0 -.267310533673D-03  .579802872380D-11  .000000000000D+00
     .520000000000D+02 -.966875000000D+02  .437661087484D-08 -.190215985138D+01
    -.506080687046D-05  .330839108210D-02  .835955142975D-05  .515364703178D+04
     .511200000000D+06 -.113621354103D-06 -.273798931407D+01 -.130385160446D-07
     .967430914981D+00  .219125000000D+03 -.683410898258D+00 -.797818946647D-08
    -.176793078427D-09  .100000000000D+01  .153500000000D+04  .000000000000D+00
     .240000000000D+01  .000000000000D+00 -.116415321827D-07  .520000000000D+02
     .504006000000D+06  .400000000000D+01
13 09  6 12 22  0  0.0  .299283303320D-03  .795807864051D-12  .000000000000D+00
     .140000000000D+02  .760625000000D+02  .373586989969D-08  .396582064195D+00
     .374577939510D-05  .415747379884D-02  .670552253723D-05  .515369708061D+04
     .511200000000D+06 -.372529029846D-07  .150347919024D+01  .745058059692D-08
     .994656660151D+00  .265937500000D+03  .159115753076D+01 -.780103923031D-08
     .248581783000D-09  .100000000000D+01  .153500000000D+04  .000000000000D+00
     .240000000000D+01  .000000000000D+00 -.111758708954D-07  .140000000000D+02
     .504006000000D+06  .400000000000D+01
